Satellite Name,TLE Line 1,TLE Line 2
STAR VIBE,1 55009U 23001A   25333.18607861  .00015928  00000+0  45188-3 0  9991,2 55009  97.3483  32.4012 0007987 111.5689 248.6407 15.36273199161453
MENUT,1 55010U 23001B   25333.16578632  .00039014  00000+0  10023-2 0  9995,2 55010  97.3539  32.9181 0007305 112.2047 247.9975 15.39166925161430
BRO-8,1 55011U 23001C   25333.18192396  .00027038  00000+0  74814-3 0  9999,2 55011  97.3544  31.9385 0008643 121.1961 239.0131 15.36939561161361
CONNECTA T1.2,1 55012U 23001D   25333.13747208  .00016492  00000+0  41760-3 0  9999,2 55012  97.3583  36.7487 0009051 101.8064 258.4197 15.39774315161661
BIRKELAND,1 55015U 23001G   25333.15514110  .00010274  00000+0  29716-3 0  9997,2 55015  97.3624  35.9209 0008997 103.6926 256.5320 15.35767388161607
OBJECT H,1 55016U 23001H   25333.18208073  .00014737  00000+0  42554-3 0  9992,2 55016  97.3470  32.3701 0008924 108.0873 252.1343 15.35729256161468
KSF3-B,1 55019U 23001L   25333.15873318  .00967623  43427-3  23225-2 0  9990,2 55019  97.3414  50.6373 0007170 303.5388  56.5203 15.96539892162613
LYNK TOWER 4,1 55034U 23001AB  25333.14133384  .00009293  00000+0  32475-3 0  9992,2 55034  97.3514  29.1140 0010606 109.4826 250.7561 15.29723524161204
SKYKRAFT-1,1 55041U 23001AJ  25333.15510638  .00036467  00000+0  67377-3 0  9994,2 55041  97.3501  39.6231 0007137  81.2386 278.9673 15.48962504161916
NUSAT-34 (AMELIA EARHA*),1 55045U 23001AN  25333.18902110  .00014311  00000+0  55779-3 0  9998,2 55045  97.3624  34.0761 0009292  78.0926 282.1354 15.26022016161713
LYNK TOWER 3,1 55046U 23001AP  25333.13783527  .00012322  00000+0  41189-3 0  9993,2 55046  97.3520  29.7736 0010359 111.1026 249.1323 15.31092664161247
NUSAT-33 (ALBANIA-2),1 55047U 23001AQ  25333.15774450  .00013033  00000+0  49035-3 0  9999,2 55047  97.3337  32.8989 0008947  48.8784 311.3226 15.27221303161788
NUSAT-35 (WILLIAMINA),1 55048U 23001AR  25333.17703560  .00016498  00000+0  55063-3 0  9992,2 55048  97.2185  26.2920 0007158  87.9360 272.2701 15.31098947161771
ICEYE-X21,1 55049U 23001AS  25333.15453131  .00050313  00000+0  69887-3 0  9990,2 55049  97.3566  42.5832 0011274  64.3269 295.9149 15.56791793162089
ION SCV-008,1 55051U 23001AU  25333.19017206  .00008306  00000+0  33111-3 0  9992,2 55051  97.5786  61.6070 0015859   2.1382 357.9921 15.25355028160812
EOSSAT-1,1 55053U 23001AW  25333.11128263  .00009324  00000+0  31902-3 0  9999,2 55053  97.3540  30.5232 0011599 109.3708 250.8788 15.30399694161281
SKYKRAFT-1A,1 55054U 23001AX  25333.14564134  .00005957  00000+0  22942-3 0  9996,2 55054  97.3538  28.6093 0011720 115.9013 244.3435 15.26668967161172
VIGORIDE-5,1 55056U 23001AZ  25333.06907551  .00031045  00000+0  65215-3 0  9990,2 55056  97.3502  35.1061 0006167 103.5220 256.6717 15.45273481161606
SKYKRAFT-1B,1 55058U 23001BB  25333.18977860  .00589181  15779-3  11194-2 0  9993,2 55058  97.3325  50.3654 0002159 306.8045  53.3036 16.00717511162637
ION SCV-007,1 55060U 23001BD  25333.13614725  .00000650  00000+0  98713-4 0  9999,2 55060  97.9300  34.8526 0011037 261.2408  98.7552 14.77292195156712
SKYKRAFT-1C,1 55061U 23001BE  25333.11142964  .00004450  00000+0  18972-3 0  9999,2 55061  97.3513  26.0533 0012208 126.8229 233.4130 15.23380677161005
NUSAT-32 (ALBANIA-1),1 55064U 23001BH  25333.19260288  .00141965  00000+0  10574-2 0  9992,2 55064  97.2039  37.0210 0002761  16.9617 343.1738 15.72351828162933
YAM-5,1 55076U 23001BV  25333.12419661  .00012805  00000+0  39600-3 0  9991,2 55076  97.3509  31.8786 0011395 106.0789 254.1709 15.33568857161390
OBJECT CA,1 55081U 23001CA  25333.16272582  .00243713  00000+0  93251-3 0  9996,2 55081  97.3406  50.2997 0001435  54.1849 305.9555 15.86843662162602
GAMA-ALPHA,1 55084U 23001CD  25333.17132323  .00171756  00000+0  10209-2 0  9996,2 55084  97.3497  48.1748 0002215  48.0510 312.0944 15.77500851162486
KSF3-A,1 55086U 23001CF  25333.17840242  .00660971  18726-3  16526-2 0  9992,2 55086  97.3414  50.9001 0005304 300.0870  59.9879 15.95743395162635
HUYGENS,1 55093U 23001CN  25333.15521028  .00011224  00000+0  32411-3 0  9991,2 55093  97.3541  35.3937 0012062  85.4260 274.8361 15.35761548161621
KUWAITSAT-1,1 55103U 23001CY  25333.15414828  .00021282  00000+0  52718-3 0  9999,2 55103  97.3539  36.8618 0011420  83.9475 276.3072 15.40365627161709
SHARJAHSAT-1,1 55104U 23001CZ  25333.12432361  .00020614  00000+0  50629-3 0  9996,2 55104  97.3490  34.9785 0008256 106.8479 253.3673 15.40663828161607
AAC-AIS-SAT1,1 55107U 23001DC  25333.18810962  .00006295  00000+0  66361-3 0  9991,2 55107  97.9415  44.0575 0009312 213.4420 146.6210 14.89654837148481
ASTROCAST-0402,1 55109U 23001DE  25333.19113696  .00010484  00000+0  43037-3 0  9994,2 55109  97.5675  58.9632 0004627 211.2561 148.8402 15.24402478114023
ASTROCAST-0401,1 55110U 23001DF  25333.20712214  .00008693  00000+0  35831-3 0  9991,2 55110  97.5663  58.9740 0008739 181.2086 178.9132 15.24295870160704
ASTROCAST-0403,1 55111U 23001DG  25333.20821333  .00011643  00000+0  46689-3 0  9997,2 55111  97.5723  59.3864 0004827 332.5172  27.5809 15.25159153114023
ASTROCAST-0404,1 55112U 23001DH  25333.17858267  .00020550  00000+0  84200-3 0  9998,2 55112  97.5757  59.7306 0006752 353.3871   6.7276 15.24292628114023
